NORAD_CAT_ID,OBJECT_NAME,OBJECT_TYPE,EPOCH,MEAN_MOTION,ECCENTRICITY,INCLINATION,RA_OF_ASC_NODE,ARG_OF_PERICENTER,MEAN_ANOMALY,BSTAR,MEAN_MOTION_DOT,MEAN_MOTION_DDOT,TLE_LINE0,TLE_LINE1,TLE_LINE2,SEMIMAJOR_AXIS,PERIOD,APOGEE,PERIGEE,DECAYED
52622.0,STARLINK-4008,PAYLOAD,2024-01-31 12:21:56,15.08835888,0.00014,53.2177,132.5898,90.4522,269.6631,4.0145e-05,3.51e-06,0.0,0 STARLINK-4008,1 52622U 22052AA  24031.51523718  .00000351  00000-0  40145-4 0  9997,2 52622  53.2177 132.5898 0001400  90.4522 269.6631 15.08835888 95198,6917.893,95.438,540.726,538.789,0.0
52622.0,STARLINK-4008,PAYLOAD,2024-02-01 12:12:44,15.08832898,0.0001459,53.2182,128.1303,84.838,275.2779,3.6925e-05,3e-06,0.0,0 STARLINK-4008,1 52622U 22052AA  24032.50884332  .00000300  00000-0  36925-4 0  9994,2 52622  53.2182 128.1303 0001459  84.8380 275.2779 15.08832898 94967,6917.902,95.438,540.776,538.758,0.0
52622.0,STARLINK-4008,PAYLOAD,2024-02-01 15:23:30,15.08835401,0.0001468,53.2176,127.535,78.3781,281.7376,5.3089e-05,5.57e-06,0.0,0 STARLINK-4008,1 52622U 22052AA  24032.64132193  .00000557  00000-0  53089-4 0  9994,2 52622  53.2176 127.5350 0001468  78.3781 281.7376 15.08835401 95361,6917.894,95.438,540.775,538.744,0.0
52622.0,STARLINK-4008,PAYLOAD,2024-02-02 12:03:30,15.08843725,0.0001747,53.2173,123.6703,74.1948,285.9236,9.7828e-05,1.269e-05,0.0,0 STARLINK-4008,1 52622U 22052AA  24033.50243578  .00001269  00000-0  97828-4 0  9990,2 52622  53.2173 123.6703 0001747  74.1948 285.9236 15.08843725 95499,6917.869,95.437,540.943,538.525,0.0
52622.0,STARLINK-4008,PAYLOAD,2024-02-02 13:38:53,15.08845896,0.0001758,53.2175,123.3733,71.2879,288.8304,0.00011628,1.563e-05,0.0,0 STARLINK-4008,1 52622U 22052AA  24033.56867395  .00001563  00000-0  11628-3 0  9995,2 52622  53.2175 123.3733 0001758  71.2879 288.8304 15.08845896 95123,6917.862,95.437,540.944,538.511,0.0
52622.0,STARLINK-4008,PAYLOAD,2024-02-03 11:54:17,15.08840095,0.0001623,53.2185,119.2042,81.2351,278.8825,2.2382e-07,-2.84e-06,0.0,0 STARLINK-4008,1 52622U 22052AA  24034.49604105 -.00000284  00000-0  22382-6 0  9998,2 52622  53.2185 119.2042 0001623  81.2351 278.8825 15.08840095 95648,6917.88,95.438,540.868,538.622,0.0
52622.0,STARLINK-4008,PAYLOAD,2024-02-04 11:45:04,15.08852003,0.0001655,53.2174,114.7506,82.61,277.508,-5.1341e-05,-1.105e-05,0.0,0 STARLINK-4008,1 52622U 22052AA  24035.48963504 -.00001105  00000-0 -51341-4 0  9998,2 52622  53.2174 114.7506 0001655  82.6100 277.5080 15.08852003 95790,6917.844,95.437,540.854,538.564,0.0
52622.0,STARLINK-4008,PAYLOAD,2024-02-05 11:35:51,15.08839543,0.0001665,53.2175,110.2898,92.9914,267.1269,2.9873e-05,1.87e-06,0.0,0 STARLINK-4008,1 52622U 22052AA  24036.48323868  .00000187  00000-0  29873-4 0  9994,2 52622  53.2175 110.2898 0001665  92.9914 267.1269 15.08839543 95949,6917.882,95.438,540.899,538.595,0.0
52622.0,STARLINK-4008,PAYLOAD,2024-02-06 09:51:15,15.0884092,0.0001583,53.2161,106.1245,91.643,268.4743,-8.9767e-06,-4.31e-06,0.0,0 STARLINK-4008,1 52622U 22052AA  24037.41059970 -.00000431  00000-0 -89767-5 0  9991,2 52622  53.2161 106.1245 0001583  91.6430 268.4743 15.08840920 95708,6917.878,95.437,540.838,538.647,0.0
52622.0,STARLINK-4008,PAYLOAD,2024-02-07 11:17:26,15.08834265,0.0001468,53.2166,101.3696,96.0637,264.0522,3.1834e-05,2.19e-06,0.0,0 STARLINK-4008,1 52622U 22052AA  24038.47044383  .00000219  00000-0  31834-4 0  9993,2 52622  53.2166 101.3696 0001468  96.0637 264.0522 15.08834265 96242,6917.898,95.438,540.778,538.747,0.0
52622.0,STARLINK-4008,PAYLOAD,2024-02-07 20:49:45,15.08833265,0.000135,53.2159,99.5846,91.9407,268.1739,-1.8321e-05,-5.79e-06,0.0,0 STARLINK-4008,1 52622U 22052AA  24038.86788707 -.00000579  00000-0 -18321-4 0  9998,2 52622  53.2159  99.5846 0001350  91.9407 268.1739 15.08833265 95926,6917.901,95.438,540.7,538.832,0.0
52622.0,STARLINK-4008,PAYLOAD,2024-02-08 11:08:13,15.08841962,0.0001654,53.2174,96.9104,110.4019,249.7151,-3.1206e-05,-7.85e-06,0.0,0 STARLINK-4008,1 52622U 22052AA  24039.46404485 -.00000785  00000-0 -31206-4 0  9999,2 52622  53.2174  96.9104 0001654 110.4019 249.7151 15.08841962 96011,6917.874,95.437,540.884,538.595,0.0
52622.0,STARLINK-4008,PAYLOAD,2024-02-09 10:59:00,15.08842833,0.0001344,53.2159,92.4476,89.2427,270.8719,9.374e-05,1.204e-05,0.0,0 STARLINK-4008,1 52622U 22052AA  24040.45764214  .00001204  00000-0  93740-4 0  9995,2 52622  53.2159  92.4476 0001344  89.2427 270.8719 15.08842833 96540,6917.872,95.437,540.666,538.807,0.0
52622.0,STARLINK-4008,PAYLOAD,2024-02-10 09:14:25,15.08833391,0.0001678,53.2176,88.2812,61.984,298.1322,5.9625e-05,6.61e-06,0.0,0 STARLINK-4008,1 52622U 22052AA  24041.38501341  .00000661  00000-0  59625-4 0  9998,2 52622  53.2176  88.2812 0001678  61.9840 298.1322 15.08833391 96689,6917.901,95.438,540.926,538.605,0.0
52622.0,STARLINK-4008,PAYLOAD,2024-02-11 09:05:11,15.08846719,0.0001726,53.2169,83.8236,73.8539,286.2643,-3.8281e-05,-8.97e-06,0.0,0 STARLINK-4008,1 52622U 22052AA  24042.37860886 -.00000897  00000-0 -38281-4 0  9998,2 52622  53.2169  83.8236 0001726  73.8539 286.2643 15.08846719 96832,6917.86,95.437,540.919,538.531,0.0
52622.0,STARLINK-4008,PAYLOAD,2024-02-12 12:06:43,15.08852989,0.0001709,53.217,78.764,100.0972,260.0213,0.00016202,2.292e-05,0.0,0 STARLINK-4008,1 52622U 22052AA  24043.50467289  .00002292  00000-0  16202-3 0  9991,2 52622  53.2170  78.7640 0001709 100.0972 260.0213 15.08852989 97000,6917.841,95.437,540.888,538.523,0.0
52622.0,STARLINK-4008,PAYLOAD,2024-02-13 11:57:32,15.08838052,0.0001451,53.2173,74.3031,94.9053,265.2105,-3.5072e-05,-8.46e-06,0.0,0 STARLINK-4008,1 52622U 22052AA  24044.49829120 -.00000846  00000-0 -35072-4 0  9998,2 52622  53.2173  74.3031 0001451  94.9053 265.2105 15.08838052 97152,6917.886,95.438,540.755,538.748,0.0
52622.0,STARLINK-4008,PAYLOAD,2024-02-14 11:48:18,15.08855977,0.0001502,53.2164,69.844,91.9583,268.1581,1.7107e-05,-1.6e-07,0.0,0 STARLINK-4008,1 52622U 22052AA  24045.49187698 -.00000016  00000-0  17107-4 0  9993,2 52622  53.2164  69.8440 0001502  91.9583 268.1581 15.08855977 97309,6917.832,95.437,540.736,538.657,0.0
52622.0,STARLINK-4008,PAYLOAD,2024-02-14 18:09:50,15.08850444,0.0001199,53.2159,68.6511,79.4419,280.6708,-3.719e-06,-3.47e-06,0.0,0 STARLINK-4008,1 52622U 22052AA  24045.75683978 -.00000347  00000-0 -37190-5 0  9997,2 52622  53.2159  68.6511 0001199  79.4419 280.6708 15.08850444 97348,6917.848,95.437,540.543,538.884,0.0
52622.0,STARLINK-4008,PAYLOAD,2024-02-15 08:28:21,15.08827145,0.0001421,53.2178,65.9819,99.2091,260.9062,4.0239e-06,-2.24e-06,0.0,0 STARLINK-4008,1 52622U 22052AA  24046.35302171 -.00000224  00000-0  40239-5 0  9998,2 52622  53.2178  65.9819 0001421  99.2091 260.9062 15.08827145 97430,6917.92,95.438,540.768,538.802,0.0
52622.0,STARLINK-4008,PAYLOAD,2024-02-15 18:00:39,15.08832648,0.0001475,53.2183,64.1973,98.6851,261.4308,-1.4322e-05,-5.16e-06,0.0,0 STARLINK-4008,1 52622U 22052AA  24046.75046087 -.00000516  00000-0 -14322-4 0  9991,2 52622  53.2183  64.1973 0001475  98.6851 261.4308 15.08832648 97112,6917.903,95.438,540.788,538.747,0.0
52622.0,STARLINK-4008,PAYLOAD,2024-02-16 09:54:30,15.08844649,0.0001389,53.2175,61.2225,97.6003,262.5147,2.4119e-05,9.6e-07,0.0,0 STARLINK-4008,1 52622U 22052AA  24047.41285504  .00000096  00000-0  24119-4 0  9990,2 52622  53.2175  61.2225 0001389  97.6003 262.5147 15.08844649 97592,6917.866,95.437,540.692,538.77,0.0
52622.0,STARLINK-4008,PAYLOAD,2024-02-17 08:09:54,15.08840497,0.0001546,53.2175,57.0559,83.5569,276.5599,8.0131e-05,9.88e-06,0.0,0 STARLINK-4008,1 52622U 22052AA  24048.34021849  .00000988  00000-0  80131-4 0  9999,2 52622  53.2175  57.0559 0001546  83.5569 276.5599 15.08840497 97730,6917.879,95.438,540.813,538.674,0.0
52622.0,STARLINK-4008,PAYLOAD,2024-02-17 17:42:13,15.08838915,0.0001585,53.2176,55.2753,89.0695,271.0478,0.00011564,1.553e-05,0.0,0 STARLINK-4008,1 52622U 22052AA  24048.73765932  .00001553  00000-0  11564-3 0  9992,2 52622  53.2176  55.2753 0001585  89.0695 271.0478 15.08838915 97414,6917.884,95.438,540.845,538.652,0.0
52622.0,STARLINK-4008,PAYLOAD,2024-02-18 06:25:18,15.08847862,0.0001484,53.2161,52.8952,90.4823,269.6339,5.6034e-05,6.04e-06,0.0,0 STARLINK-4008,1 52622U 22052AA  24049.26757551  .00000604  00000-0  56034-4 0  9997,2 52622  53.2161  52.8952 0001484  90.4823 269.6339 15.08847862 97497,6917.856,95.437,540.748,538.695,0.0
52622.0,STARLINK-4008,PAYLOAD,2024-02-18 17:33:00,15.08843335,0.000146,53.2164,50.8132,89.2038,270.9121,2.4675e-05,1.05e-06,0.0,0 STARLINK-4008,1 52622U 22052AA  24049.73125775  .00000105  00000-0  24675-4 0  9998,2 52622  53.2164  50.8132 0001460  89.2038 270.9121 15.08843335 97941,6917.87,95.437,540.745,538.725,0.0
52622.0,STARLINK-4008,PAYLOAD,2024-02-19 09:26:51,15.08845445,0.0001612,53.2173,47.8376,96.8739,263.2437,5.3062e-05,5.57e-06,0.0,0 STARLINK-4008,1 52622U 22052AA  24050.39365500  .00000557  00000-0  53062-4 0  9997,2 52622  53.2173  47.8376 0001612  96.8739 263.2437 15.08845445 97666,6917.864,95.437,540.844,538.614,0.0
52622.0,STARLINK-4008,PAYLOAD,2024-02-19 17:23:47,15.08839272,0.0001554,53.2178,46.3489,101.7145,258.4021,2.0924e-05,4.5e-07,0.0,0 STARLINK-4008,1 52622U 22052AA  24050.72485894  .00000045  00000-0  20924-4 0  9996,2 52622  53.2178  46.3489 0001554 101.7145 258.4021 15.08839272 97714,6917.883,95.438,540.823,538.673,0.0
52622.0,STARLINK-4008,PAYLOAD,2024-02-20 04:31:30,15.08836422,0.0001513,53.2162,44.2706,99.6411,260.4753,-2.5336e-06,-3.28e-06,0.0,0 STARLINK-4008,1 52622U 22052AA  24051.18854230 -.00000328  00000-0 -25336-5 0  9990,2 52622  53.2162  44.2706 0001513  99.6411 260.4753 15.08836422 98161,6917.891,95.438,540.803,538.71,0.0
52622.0,STARLINK-4008,PAYLOAD,2024-02-20 06:06:53,15.08839877,0.0001478,53.2169,43.9734,98.6932,261.4228,-4.3899e-06,-3.58e-06,0.0,0 STARLINK-4008,1 52622U 22052AA  24051.25478038 -.00000358  00000-0 -43899-5 0  9993,2 52622  53.2169  43.9734 0001478  98.6932 261.4228 15.08839877 97795,6917.881,95.438,540.768,538.723,0.0
